[{"OBJECT_NAME":"HAWK-6B","OBJECT_ID":"2023-011A","EPOCH":"2026-03-09T09:51:17.950752","MEAN_MOTION":15.21905453,"ECCENTRICITY":0.00019203,"INCLINATION":40.5121,"RA_OF_ASC_NODE":213.6048,"ARG_OF_PERICENTER":18.2889,"MEAN_ANOMALY":341.7989,"EPHEMERIS_TYPE":0,"CLASSIFICATION_TYPE":"U","NORAD_CAT_ID":55324,"ELEMENT_SET_NO":999,"REV_AT_EPOCH":17263,"BSTAR":0.00033476386,"MEAN_MOTION_DOT":7.596e-5,"MEAN_MOTION_DDOT":0},{"OBJECT_NAME":"COSMOS 2579","OBJECT_ID":"2024-197A","EPOCH":"2026-03-09T23:06:38.118816","MEAN_MOTION":15.2412329,"ECCENTRICITY":0.00026117,"INCLINATION":97.557,"RA_OF_ASC_NODE":352.0823,"ARG_OF_PERICENTER":56.3903,"MEAN_ANOMALY":303.7583,"EPHEMERIS_TYPE":0,"CLASSIFICATION_TYPE":"U","NORAD_CAT_ID":61730,"ELEMENT_SET_NO":999,"REV_AT_EPOCH":7535,"BSTAR":0.00021686366,"MEAN_MOTION_DOT":5.199e-5,"MEAN_MOTION_DDOT":0}]
